{
    "links": {
        "self": "http://www.neowsapp.com/rest/v1/neo/3648367?api_key=iIulBulltgU6a56xZRHN4H3l9WmuAYTsLGpBGhQ2"
    },
    "id": "3648367",
    "neo_reference_id": "3648367",
    "name": "(2013 RY80)",
    "designation": "2013 RY80",
    "nasa_jpl_url": "http://ssd.jpl.nasa.gov/sbdb.cgi?sstr=3648367",
    "absolute_magnitude_h": 25.8,
    "estimated_diameter": {
        "kilometers": {
            "estimated_diameter_min": 0.0183888672,
            "estimated_diameter_max": 0.0411187571
        },
        "meters": {
            "estimated_diameter_min": 18.388867207,
            "estimated_diameter_max": 41.1187571041
        },
        "miles": {
            "estimated_diameter_min": 0.0114263088,
            "estimated_diameter_max": 0.0255500032
        },
        "feet": {
            "estimated_diameter_min": 60.3309310875,
            "estimated_diameter_max": 134.9040630575
        }
    },
    "is_potentially_hazardous_asteroid": false,
    "close_approach_data": [
        {
            "close_approach_date": "2006-07-15",
            "close_approach_date_full": "2006-Jul-15 10:18",
            "epoch_date_close_approach": 1152958680000,
            "relative_velocity": {
                "kilometers_per_second": "14.4278846704",
                "kilometers_per_hour": "51940.3848134422",
                "miles_per_hour": "32273.7352192191"
            },
            "miss_distance": {
                "astronomical": "0.3020649121",
                "lunar": "117.5032508069",
                "kilometers": "45188267.451897227",
                "miles": "28078687.3685746526"
            },
            "orbiting_body": "Earth"
        },
        {
            "close_approach_date": "2013-09-10",
            "close_approach_date_full": "2013-Sep-10 02:44",
            "epoch_date_close_approach": 1378781040000,
            "relative_velocity": {
                "kilometers_per_second": "6.7611094191",
                "kilometers_per_hour": "24339.9939086623",
                "miles_per_hour": "15123.9256595241"
            },
            "miss_distance": {
                "astronomical": "0.0236885245",
                "lunar": "9.2148360305",
                "kilometers": "3543752.808642815",
                "miles": "2201985.887848247"
            },
            "orbiting_body": "Earth"
        },
        {
            "close_approach_date": "2020-10-25",
            "close_approach_date_full": "2020-Oct-25 01:41",
            "epoch_date_close_approach": 1603590060000,
            "relative_velocity": {
                "kilometers_per_second": "19.7697814539",
                "kilometers_per_hour": "71171.2132342146",
                "miles_per_hour": "44223.0241343374"
            },
            "miss_distance": {
                "astronomical": "0.4690988378",
                "lunar": "182.4794479042",
                "kilometers": "70176186.954355486",
                "miles": "43605460.5613622668"
            },
            "orbiting_body": "Earth"
        },
        {
            "close_approach_date": "2079-10-16",
            "close_approach_date_full": "2079-Oct-16 18:24",
            "epoch_date_close_approach": 3464706240000,
            "relative_velocity": {
                "kilometers_per_second": "14.8386123463",
                "kilometers_per_hour": "53419.0044467891",
                "miles_per_hour": "33192.4919575062"
            },
            "miss_distance": {
                "astronomical": "0.3020215471",
                "lunar": "117.4863818219",
                "kilometers": "45181780.140264677",
                "miles": "28074656.3400474626"
            },
            "orbiting_body": "Earth"
        },
        {
            "close_approach_date": "2145-09-22",
            "close_approach_date_full": "2145-Sep-22 03:30",
            "epoch_date_close_approach": 5545337400000,
            "relative_velocity": {
                "kilometers_per_second": "7.5611127976",
                "kilometers_per_hour": "27220.0060713219",
                "miles_per_hour": "16913.4532169278"
            },
            "miss_distance": {
                "astronomical": "0.0546084271",
                "lunar": "21.2426781419",
                "kilometers": "8169304.378210277",
                "miles": "5076170.3554727426"
            },
            "orbiting_body": "Earth"
        }
    ],
    "orbital_data": {
        "orbit_id": "7",
        "orbit_determination_date": "2017-04-06 08:44:39",
        "first_observation_date": "2013-09-15",
        "last_observation_date": "2013-10-09",
        "data_arc_in_days": 24,
        "observations_used": 21,
        "orbit_uncertainty": "7",
        "minimum_orbit_intersection": ".0214512",
        "jupiter_tisserand_invariant": "3.989",
        "epoch_osculation": "2459000.5",
        "eccentricity": ".4207902532875685",
        "semi_major_axis": "1.77196319757634",
        "inclination": "6.372717304557056",
        "ascending_node_longitude": "348.0392454076657",
        "orbital_period": "861.5499733860078",
        "perihelion_distance": "1.026338354851942",
        "perihelion_argument": "351.6506304031815",
        "aphelion_distance": "2.517588040300737",
        "perihelion_time": "2459123.965616070444",
        "mean_anomaly": "308.4096997755399",
        "mean_motion": ".4178515595388523",
        "equinox": "J2000",
        "orbit_class": {
            "orbit_class_type": "AMO",
            "orbit_class_description": "Near-Earth asteroid orbits similar to that of 1221 Amor",
            "orbit_class_range": "1.017 AU < q (perihelion) < 1.3 AU"
        }
    },
    "is_sentry_object": false
}